[{"OBJECT_NAME":"IRIDIUM 33 DEB","OBJECT_ID":"1997-051ZR","EPOCH":"2026-03-03T10:30:08.263296","MEAN_MOTION":14.55512254,"ECCENTRICITY":0.00044916,"INCLINATION":86.3241,"RA_OF_ASC_NODE":314.9982,"ARG_OF_PERICENTER":118.5703,"MEAN_ANOMALY":241.5957,"EPHEMERIS_TYPE":0,"CLASSIFICATION_TYPE":"U","NORAD_CAT_ID":38241,"ELEMENT_SET_NO":999,"REV_AT_EPOCH":61374,"BSTAR":0.00077125235,"MEAN_MOTION_DOT":3.377e-5,"MEAN_MOTION_DDOT":0},{"OBJECT_NAME":"IRIDIUM 33 DEB","OBJECT_ID":"1997-051AAB","EPOCH":"2026-02-23T12:18:19.545408","MEAN_MOTION":14.51138309,"ECCENTRICITY":0.0024339,"INCLINATION":86.3472,"RA_OF_ASC_NODE":338.3518,"ARG_OF_PERICENTER":199.6569,"MEAN_ANOMALY":160.3701,"EPHEMERIS_TYPE":0,"CLASSIFICATION_TYPE":"U","NORAD_CAT_ID":38474,"ELEMENT_SET_NO":999,"REV_AT_EPOCH":66373,"BSTAR":0.00065939086,"MEAN_MOTION_DOT":2.644e-5,"MEAN_MOTION_DDOT":0},{"OBJECT_NAME":"IRIDIUM 33 DEB","OBJECT_ID":"1997-051AAJ","EPOCH":"2026-03-04T03:53:04.474176","MEAN_MOTION":14.58762016,"ECCENTRICITY":0.0056342,"INCLINATION":85.9609,"RA_OF_ASC_NODE":135.4692,"ARG_OF_PERICENTER":268.588,"MEAN_ANOMALY":90.8874,"EPHEMERIS_TYPE":0,"CLASSIFICATION_TYPE":"U","NORAD_CAT_ID":39777,"ELEMENT_SET_NO":999,"REV_AT_EPOCH":61371,"BSTAR":0.0038081,"MEAN_MOTION_DOT":0.00018228,"MEAN_MOTION_DDOT":0},{"OBJECT_NAME":"IRIDIUM 33 DEB","OBJECT_ID":"1997-051AAK","EPOCH":"2026-03-02T13:43:27.058080","MEAN_MOTION":14.55033378,"ECCENTRICITY":0.000955,"INCLINATION":86.3813,"RA_OF_ASC_NODE":8.5458,"ARG_OF_PERICENTER":105.6953,"MEAN_ANOMALY":254.5308,"EPHEMERIS_TYPE":0,"CLASSIFICATION_TYPE":"U","NORAD_CAT_ID":39778,"ELEMENT_SET_NO":999,"REV_AT_EPOCH":61853,"BSTAR":0.0012167,"MEAN_MOTION_DOT":5.265e-5,"MEAN_MOTION_DDOT":0},{"OBJECT_NAME":"IRIDIUM 33 DEB","OBJECT_ID":"1997-051ABJ","EPOCH":"2026-03-01T17:17:38.518080","MEAN_MOTION":15.03751251,"ECCENTRICITY":0.00111101,"INCLINATION":86.3492,"RA_OF_ASC_NODE":324.3002,"ARG_OF_PERICENTER":100.8093,"MEAN_ANOMALY":289.403,"EPHEMERIS_TYPE":0,"CLASSIFICATION_TYPE":"U","NORAD_CAT_ID":40996,"ELEMENT_SET_NO":999,"REV_AT_EPOCH":63672,"BSTAR":0.0033887555,"MEAN_MOTION_DOT":0.00046825,"MEAN_MOTION_DDOT":0},{"OBJECT_NAME":"IRIDIUM 33 DEB","OBJECT_ID":"1997-051ABL","EPOCH":"2026-03-03T03:59:52.180224","MEAN_MOTION":14.45431267,"ECCENTRICITY":0.00077107,"INCLINATION":86.3853,"RA_OF_ASC_NODE":19.2798,"ARG_OF_PERICENTER":153.506,"MEAN_ANOMALY":267.9575,"EPHEMERIS_TYPE":0,"CLASSIFICATION_TYPE":"U","NORAD_CAT_ID":40998,"ELEMENT_SET_NO":999,"REV_AT_EPOCH":7843,"BSTAR":0.00063413302,"MEAN_MOTION_DOT":2.251e-5,"MEAN_MOTION_DDOT":0},{"OBJECT_NAME":"IRIDIUM 33 DEB","OBJECT_ID":"1997-051ABN","EPOCH":"2026-02-04T03:14:59.029152","MEAN_MOTION":14.36167469,"ECCENTRICITY":0.01982718,"INCLINATION":86.2792,"RA_OF_ASC_NODE":170.9115,"ARG_OF_PERICENTER":102.1484,"MEAN_ANOMALY":74.9261,"EPHEMERIS_TYPE":0,"CLASSIFICATION_TYPE":"U","NORAD_CAT_ID":46435,"ELEMENT_SET_NO":999,"REV_AT_EPOCH":8681,"BSTAR":0.0070927706,"MEAN_MOTION_DOT":0.00025972,"MEAN_MOTION_DDOT":0},{"OBJECT_NAME":"IRIDIUM 33 DEB","OBJECT_ID":"1997-051ABX","EPOCH":"2026-03-03T02:53:55.531104","MEAN_MOTION":14.61007429,"ECCENTRICITY":0.00211189,"INCLINATION":86.3336,"RA_OF_ASC_NODE":305.0427,"ARG_OF_PERICENTER":55.1714,"MEAN_ANOMALY":98.1056,"EPHEMERIS_TYPE":0,"CLASSIFICATION_TYPE":"U","NORAD_CAT_ID":46965,"ELEMENT_SET_NO":999,"REV_AT_EPOCH":63441,"BSTAR":0.00069217187,"MEAN_MOTION_DOT":3.426e-5,"MEAN_MOTION_DDOT":0},{"OBJECT_NAME":"IRIDIUM 33 DEB","OBJECT_ID":"1997-051ACD","EPOCH":"2026-02-15T04:06:14.442336","MEAN_MOTION":15.0282309,"ECCENTRICITY":0.00183243,"INCLINATION":86.3384,"RA_OF_ASC_NODE":302.6959,"ARG_OF_PERICENTER":121.5358,"MEAN_ANOMALY":29.3036,"EPHEMERIS_TYPE":0,"CLASSIFICATION_TYPE":"U","NORAD_CAT_ID":46971,"ELEMENT_SET_NO":999,"REV_AT_EPOCH":65196,"BSTAR":0.0024316654,"MEAN_MOTION_DOT":0.00032805,"MEAN_MOTION_DDOT":0},{"OBJECT_NAME":"IRIDIUM 33 DEB","OBJECT_ID":"1997-051ACE","EPOCH":"2026-02-13T16:21:13.155264","MEAN_MOTION":14.51029384,"ECCENTRICITY":0.00070915,"INCLINATION":86.39,"RA_OF_ASC_NODE":12.2992,"ARG_OF_PERICENTER":258.5659,"MEAN_ANOMALY":223.6549,"EPHEMERIS_TYPE":0,"CLASSIFICATION_TYPE":"U","NORAD_CAT_ID":46972,"ELEMENT_SET_NO":999,"REV_AT_EPOCH":62485,"BSTAR":0.00064339815,"MEAN_MOTION_DOT":2.565e-5,"MEAN_MOTION_DDOT":0},{"OBJECT_NAME":"IRIDIUM 33 DEB","OBJECT_ID":"1997-051ACG","EPOCH":"2026-02-19T19:32:51.839232","MEAN_MOTION":14.46114347,"ECCENTRICITY":0.0088187,"INCLINATION":86.296,"RA_OF_ASC_NODE":75.0684,"ARG_OF_PERICENTER":318.574,"MEAN_ANOMALY":40.8797,"EPHEMERIS_TYPE":0,"CLASSIFICATION_TYPE":"U","NORAD_CAT_ID":46974,"ELEMENT_SET_NO":999,"REV_AT_EPOCH":58506,"BSTAR":0.0022535,"MEAN_MOTION_DOT":8.465e-5,"MEAN_MOTION_DDOT":0}]
